STARLINK-34630          
1 64948U 25158S   25364.19714317  .00001165  00000+0  84920-4 0  9994
2 64948  97.6021 225.6592 0002345  79.3951 280.7540 15.05648401 24902
STARLINK-34689          
1 64949U 25158T   25364.18328764  .00009487  00000+0  66064-3 0  9994
2 64949  97.5982 225.5288 0001830  82.5048 277.6386 15.05659855 24896
STARLINK-34586          
1 64950U 25158U   25364.17223573 -.00019258  00000+0 -13353-2 0  9998
2 64950  97.6029 225.5386 0001883  64.8863 295.2559 15.05614078 24892
STARLINK-34738          
1 64951U 25158V   25364.20544844  .00003852  00000+0  27110-3 0  9998
2 64951  97.6029 225.6495 0003126  78.7123 281.4455 15.05641840 24901
STARLINK-34744          
1 64952U 25158W   25364.18882776  .00004311  00000+0  30274-3 0  9991
2 64952  97.6022 225.5088 0002291  79.6092 280.5393 15.05652792 24896
STARLINK-34701          
1 64953U 25158X   25364.26637506 -.00011686  00000+0 -80753-3 0  9992
2 64953  97.6025 225.7209 0002385  83.8048 276.3451 15.05625071 24910
STARLINK-34761          
1 64954U 25158Y   25364.18607575  .00016509  00000+0  11461-2 0  9993
2 64954  97.6020 225.5210 0002032  76.1967 283.9486 15.05637998 24890
STARLINK-34732          
1 64955U 25158Z   25364.15283495  .00001112  00000+0  81276-4 0  9999
2 64955  97.6051 225.5661 0002308  91.1969 268.9522 15.05656123 24895
STARLINK-34617          
1 65015U 25161A   25364.11167071  .00017621  00000+0  60547-3 0  9997
2 65015  53.1600 257.6416 0001318  72.2245 287.8900 15.30208915 23575
STARLINK-34627          
1 65016U 25161B   25364.09584247  .00020170  00000+0  69127-3 0  9999
2 65016  53.1604 257.5383 0001199  80.5743 279.5393 15.30200039 24781
STARLINK-34549          
1 65017U 25161C   25363.99253665  .00054805  00000+0  18496-2 0  9999
2 65017  53.1576 257.6020 0001127  79.2975 280.8152 15.30188158 24776
STARLINK-34623          
1 65018U 25161D   25364.11800273  .00039047  00000+0  13236-2 0  9996
2 65018  53.1594 257.6818 0001342  78.6046 281.5105 15.30199954 24674
STARLINK-34232          
1 65019U 25161E   25364.10428241  .00023377  00000+0  79869-3 0  9991
2 65019  53.1596 257.5942 0000943  56.9401 303.1690 15.30209811 24780
STARLINK-34772          
1 65020U 25161F   25364.01891436  .00021689  00000+0  74198-3 0  9997
2 65020  53.1593 257.7672 0000927 106.7836 253.3266 15.30213042 24774
STARLINK-34778          
1 65021U 25161G   25364.11378185  .00037391  00000+0  12677-2 0  9990
2 65021  53.1589 257.6529 0001219 101.9902 258.1235 15.30212665 24663
STARLINK-34789          
1 65022U 25161H   25363.97893005  .00037604  00000+0  12754-2 0  9990
2 65022  53.1598 258.2323 0001774  80.9090 279.2112 15.30197944 24641
