[{"OBJECT_NAME":"STARLINK-34630","OBJECT_ID":"2025-158S","EPOCH":"2025-12-30T04:43:53.169888","MEAN_MOTION":15.05648401,"ECCENTRICITY":0.00023456,"INCLINATION":97.6021,"RA_OF_ASC_NODE":225.6592,"ARG_OF_PERICENTER":79.3951,"MEAN_ANOMALY":280.754,"EPHEMERIS_TYPE":0,"CLASSIFICATION_TYPE":"U","NORAD_CAT_ID":64948,"ELEMENT_SET_NO":999,"REV_AT_EPOCH":2490,"BSTAR":8.4919541e-5,"MEAN_MOTION_DOT":1.165e-5,"MEAN_MOTION_DDOT":0},{"OBJECT_NAME":"STARLINK-34689","OBJECT_ID":"2025-158T","EPOCH":"2025-12-30T04:23:56.052096","MEAN_MOTION":15.05659855,"ECCENTRICITY":0.00018305,"INCLINATION":97.5982,"RA_OF_ASC_NODE":225.5288,"ARG_OF_PERICENTER":82.5048,"MEAN_ANOMALY":277.6386,"EPHEMERIS_TYPE":0,"CLASSIFICATION_TYPE":"U","NORAD_CAT_ID":64949,"ELEMENT_SET_NO":999,"REV_AT_EPOCH":2489,"BSTAR":0.00066064267,"MEAN_MOTION_DOT":9.487e-5,"MEAN_MOTION_DDOT":0},{"OBJECT_NAME":"STARLINK-34586","OBJECT_ID":"2025-158U","EPOCH":"2025-12-30T04:08:01.167072","MEAN_MOTION":15.05614078,"ECCENTRICITY":0.0001883,"INCLINATION":97.6029,"RA_OF_ASC_NODE":225.5386,"ARG_OF_PERICENTER":64.8863,"MEAN_ANOMALY":295.2559,"EPHEMERIS_TYPE":0,"CLASSIFICATION_TYPE":"U","NORAD_CAT_ID":64950,"ELEMENT_SET_NO":999,"REV_AT_EPOCH":2489,"BSTAR":-0.0013352905,"MEAN_MOTION_DOT":-0.00019258,"MEAN_MOTION_DDOT":0},{"OBJECT_NAME":"STARLINK-34738","OBJECT_ID":"2025-158V","EPOCH":"2025-12-30T04:55:50.745216","MEAN_MOTION":15.0564184,"ECCENTRICITY":0.00031269,"INCLINATION":97.6029,"RA_OF_ASC_NODE":225.6495,"ARG_OF_PERICENTER":78.7123,"MEAN_ANOMALY":281.4455,"EPHEMERIS_TYPE":0,"CLASSIFICATION_TYPE":"U","NORAD_CAT_ID":64951,"ELEMENT_SET_NO":999,"REV_AT_EPOCH":2490,"BSTAR":0.00027110352,"MEAN_MOTION_DOT":3.852e-5,"MEAN_MOTION_DDOT":0},{"OBJECT_NAME":"STARLINK-34744","OBJECT_ID":"2025-158W","EPOCH":"2025-12-30T04:31:54.718464","MEAN_MOTION":15.05652792,"ECCENTRICITY":0.00022913,"INCLINATION":97.6022,"RA_OF_ASC_NODE":225.5088,"ARG_OF_PERICENTER":79.6092,"MEAN_ANOMALY":280.5393,"EPHEMERIS_TYPE":0,"CLASSIFICATION_TYPE":"U","NORAD_CAT_ID":64952,"ELEMENT_SET_NO":999,"REV_AT_EPOCH":2489,"BSTAR":0.00030274267,"MEAN_MOTION_DOT":4.311e-5,"MEAN_MOTION_DDOT":0},{"OBJECT_NAME":"STARLINK-34701","OBJECT_ID":"2025-158X","EPOCH":"2025-12-30T06:23:34.805184","MEAN_MOTION":15.05625071,"ECCENTRICITY":0.00023857,"INCLINATION":97.6025,"RA_OF_ASC_NODE":225.7209,"ARG_OF_PERICENTER":83.8048,"MEAN_ANOMALY":276.3451,"EPHEMERIS_TYPE":0,"CLASSIFICATION_TYPE":"U","NORAD_CAT_ID":64953,"ELEMENT_SET_NO":999,"REV_AT_EPOCH":2491,"BSTAR":-0.00080752991,"MEAN_MOTION_DOT":-0.00011686,"MEAN_MOTION_DDOT":0},{"OBJECT_NAME":"STARLINK-34761","OBJECT_ID":"2025-158Y","EPOCH":"2025-12-30T04:27:56.944800","MEAN_MOTION":15.05637998,"ECCENTRICITY":0.00020322,"INCLINATION":97.602,"RA_OF_ASC_NODE":225.521,"ARG_OF_PERICENTER":76.1967,"MEAN_ANOMALY":283.9486,"EPHEMERIS_TYPE":0,"CLASSIFICATION_TYPE":"U","NORAD_CAT_ID":64954,"ELEMENT_SET_NO":999,"REV_AT_EPOCH":2489,"BSTAR":0.0011460605,"MEAN_MOTION_DOT":0.00016509,"MEAN_MOTION_DDOT":0},{"OBJECT_NAME":"STARLINK-34732","OBJECT_ID":"2025-158Z","EPOCH":"2025-12-30T03:40:04.939680","MEAN_MOTION":15.05656123,"ECCENTRICITY":0.00023086,"INCLINATION":97.6051,"RA_OF_ASC_NODE":225.5661,"ARG_OF_PERICENTER":91.1969,"MEAN_ANOMALY":268.9522,"EPHEMERIS_TYPE":0,"CLASSIFICATION_TYPE":"U","NORAD_CAT_ID":64955,"ELEMENT_SET_NO":999,"REV_AT_EPOCH":2489,"BSTAR":8.1275602e-5,"MEAN_MOTION_DOT":1.112e-5,"MEAN_MOTION_DDOT":0},{"OBJECT_NAME":"STARLINK-34617","OBJECT_ID":"2025-161A","EPOCH":"2025-12-30T02:40:48.349344","MEAN_MOTION":15.30208915,"ECCENTRICITY":0.00013187,"INCLINATION":53.16,"RA_OF_ASC_NODE":257.6416,"ARG_OF_PERICENTER":72.2245,"MEAN_ANOMALY":287.89,"EPHEMERIS_TYPE":0,"CLASSIFICATION_TYPE":"U","NORAD_CAT_ID":65015,"ELEMENT_SET_NO":999,"REV_AT_EPOCH":2357,"BSTAR":0.00060547374,"MEAN_MOTION_DOT":0.00017621,"MEAN_MOTION_DDOT":0},{"OBJECT_NAME":"STARLINK-34627","OBJECT_ID":"2025-161B","EPOCH":"2025-12-30T02:18:00.789408","MEAN_MOTION":15.30200039,"ECCENTRICITY":0.00011993,"INCLINATION":53.1604,"RA_OF_ASC_NODE":257.5383,"ARG_OF_PERICENTER":80.5743,"MEAN_ANOMALY":279.5393,"EPHEMERIS_TYPE":0,"CLASSIFICATION_TYPE":"U","NORAD_CAT_ID":65016,"ELEMENT_SET_NO":999,"REV_AT_EPOCH":2478,"BSTAR":0.00069127271,"MEAN_MOTION_DOT":0.0002017,"MEAN_MOTION_DDOT":0},{"OBJECT_NAME":"STARLINK-34549","OBJECT_ID":"2025-161C","EPOCH":"2025-12-29T23:49:15.166560","MEAN_MOTION":15.30188158,"ECCENTRICITY":0.00011272,"INCLINATION":53.1576,"RA_OF_ASC_NODE":257.602,"ARG_OF_PERICENTER":79.2975,"MEAN_ANOMALY":280.8152,"EPHEMERIS_TYPE":0,"CLASSIFICATION_TYPE":"U","NORAD_CAT_ID":65017,"ELEMENT_SET_NO":999,"REV_AT_EPOCH":2477,"BSTAR":0.0018495848,"MEAN_MOTION_DOT":0.00054805,"MEAN_MOTION_DDOT":0},{"OBJECT_NAME":"STARLINK-34623","OBJECT_ID":"2025-161D","EPOCH":"2025-12-30T02:49:55.435872","MEAN_MOTION":15.30199954,"ECCENTRICITY":0.0001342,"INCLINATION":53.1594,"RA_OF_ASC_NODE":257.6818,"ARG_OF_PERICENTER":78.6046,"MEAN_ANOMALY":281.5105,"EPHEMERIS_TYPE":0,"CLASSIFICATION_TYPE":"U","NORAD_CAT_ID":65018,"ELEMENT_SET_NO":999,"REV_AT_EPOCH":2467,"BSTAR":0.0013235658,"MEAN_MOTION_DOT":0.00039047,"MEAN_MOTION_DDOT":0},{"OBJECT_NAME":"STARLINK-34232","OBJECT_ID":"2025-161E","EPOCH":"2025-12-30T02:30:10.000224","MEAN_MOTION":15.30209811,"ECCENTRICITY":9.431e-5,"INCLINATION":53.1596,"RA_OF_ASC_NODE":257.5942,"ARG_OF_PERICENTER":56.9401,"MEAN_ANOMALY":303.169,"EPHEMERIS_TYPE":0,"CLASSIFICATION_TYPE":"U","NORAD_CAT_ID":65019,"ELEMENT_SET_NO":999,"REV_AT_EPOCH":2478,"BSTAR":0.00079868848,"MEAN_MOTION_DOT":0.00023377,"MEAN_MOTION_DDOT":0},{"OBJECT_NAME":"STARLINK-34772","OBJECT_ID":"2025-161F","EPOCH":"2025-12-30T00:27:14.200704","MEAN_MOTION":15.30213042,"ECCENTRICITY":9.272e-5,"INCLINATION":53.1593,"RA_OF_ASC_NODE":257.7672,"ARG_OF_PERICENTER":106.7836,"MEAN_ANOMALY":253.3266,"EPHEMERIS_TYPE":0,"CLASSIFICATION_TYPE":"U","NORAD_CAT_ID":65020,"ELEMENT_SET_NO":999,"REV_AT_EPOCH":2477,"BSTAR":0.00074198104,"MEAN_MOTION_DOT":0.00021689,"MEAN_MOTION_DDOT":0},{"OBJECT_NAME":"STARLINK-34778","OBJECT_ID":"2025-161G","EPOCH":"2025-12-30T02:43:50.751840","MEAN_MOTION":15.30212665,"ECCENTRICITY":0.00012199,"INCLINATION":53.1589,"RA_OF_ASC_NODE":257.6529,"ARG_OF_PERICENTER":101.9902,"MEAN_ANOMALY":258.1235,"EPHEMERIS_TYPE":0,"CLASSIFICATION_TYPE":"U","NORAD_CAT_ID":65021,"ELEMENT_SET_NO":999,"REV_AT_EPOCH":2466,"BSTAR":0.0012677379,"MEAN_MOTION_DOT":0.00037391,"MEAN_MOTION_DDOT":0},{"OBJECT_NAME":"STARLINK-34789","OBJECT_ID":"2025-161H","EPOCH":"2025-12-29T23:29:39.556320","MEAN_MOTION":15.30197944,"ECCENTRICITY":0.00017745,"INCLINATION":53.1598,"RA_OF_ASC_NODE":258.2323,"ARG_OF_PERICENTER":80.909,"MEAN_ANOMALY":279.2112,"EPHEMERIS_TYPE":0,"CLASSIFICATION_TYPE":"U","NORAD_CAT_ID":65022,"ELEMENT_SET_NO":999,"REV_AT_EPOCH":2464,"BSTAR":0.0012754208,"MEAN_MOTION_DOT":0.00037604,"MEAN_MOTION_DDOT":0}]
